[{"OBJECT_NAME":"ION SCV-020","OBJECT_ID":"2025-135T","EPOCH":"2026-03-09T21:47:53.616480","MEAN_MOTION":15.20454047,"ECCENTRICITY":0.00028998,"INCLINATION":97.458,"RA_OF_ASC_NODE":184.8922,"ARG_OF_PERICENTER":140.0276,"MEAN_ANOMALY":220.1173,"EPHEMERIS_TYPE":0,"CLASSIFICATION_TYPE":"U","NORAD_CAT_ID":64545,"ELEMENT_SET_NO":999,"REV_AT_EPOCH":3976,"BSTAR":0.00023326396,"MEAN_MOTION_DOT":5.022e-5,"MEAN_MOTION_DDOT":0},{"OBJECT_NAME":"LOBACHEVSKY (RS83S)","OBJECT_ID":"2025-313AN","EPOCH":"2026-03-09T21:53:46.312512","MEAN_MOTION":15.21792932,"ECCENTRICITY":0.0010507,"INCLINATION":97.399,"RA_OF_ASC_NODE":145.2052,"ARG_OF_PERICENTER":356.6168,"MEAN_ANOMALY":3.4996,"EPHEMERIS_TYPE":0,"CLASSIFICATION_TYPE":"U","NORAD_CAT_ID":67284,"ELEMENT_SET_NO":999,"REV_AT_EPOCH":1085,"BSTAR":0.00030825721,"MEAN_MOTION_DOT":6.937e-5,"MEAN_MOTION_DDOT":0}]
